start=new Date('2022-04-27T00:00:00.000Z').valueOf();
sats=[{"REF_FRAME":"TEME","RCS_SIZE":"LARGE","CLASSIFICATION_TYPE":"U","COUNTRY_CODE":"US","PERIAPSIS":"334.181","ELEMENT_SET_NO":"999","RA_OF_ASC_NODE":"89.6551","MEAN_ANOMALY":"79.0398","ECCENTRICITY":"0.00080870","LAUNCH_DATE":"2021-01-20","OBJECT_ID":"2021-005S","INCLINATION":"53.0331","BSTAR":"-0.00001936900000","APOAPSIS":"345.047","FILE":"3417035","CENTER_NAME":"EARTH","SITE":"AFETR","EPOCH":"2022-04-26T09:54:46.471104","TIME_SYSTEM":"UTC","DECAY_DATE":null,"SEMIMAJOR_AXIS":"6717.749","MEAN_MOTION_DOT":"-0.00003850","MEAN_MOTION_DDOT":"0.0000000000000","EPHEMERIS_TYPE":"0","OBJECT_TYPE":"PAYLOAD","OBJECT_NAME":"STARLINK-2080","TLE_LINE2":"2 47365  53.0331  89.6551 0008087 280.9711  79.0398 15.76765491 72777","REV_AT_EPOCH":"7277","MEAN_MOTION":"15.76765491","PERIOD":"91.326","ARG_OF_PERICENTER":"280.9711","NORAD_CAT_ID":"47365","TLE_LINE1":"1 47365U 21005S   22116.41303786 -.00003850  00000-0 -19369-4 0  9997","GP_ID":"202074802","MEAN_ELEMENT_THEORY":"SGP4"},{"BSTAR":"0.00004815100000","INCLINATION":"53.0554","APOAPSIS":"548.283","FILE":"3417474","ECCENTRICITY":"0.00015670","MEAN_ANOMALY":"290.9499","LAUNCH_DATE":"2021-01-20","OBJECT_ID":"2021-005T","SITE":"AFETR","CENTER_NAME":"EARTH","RCS_SIZE":"LARGE","CLASSIFICATION_TYPE":"U","COUNTRY_CODE":"US","PERIAPSIS":"546.113","REF_FRAME":"TEME","ELEMENT_SET_NO":"999","RA_OF_ASC_NODE":"284.6039","TLE_LINE2":"2 47366  53.0554 284.6039 0001567  69.1658 290.9499 15.06405024 70079","REV_AT_EPOCH":"7007","MEAN_MOTION":"15.06405024","OBJECT_TYPE":"PAYLOAD","OBJECT_NAME":"STARLINK-2081","GP_ID":"202110966","MEAN_ELEMENT_THEORY":"SGP4","ARG_OF_PERICENTER":"69.1658","PERIOD":"95.592","TLE_LINE1":"1 47366U 21005T   22116.73927524  .00000436  00000-0  48151-4 0  9991","NORAD_CAT_ID":"47366","TIME_SYSTEM":"UTC","DECAY_DATE":null,"SEMIMAJOR_AXIS":"6925.333","EPOCH":"2022-04-26T17:44:33.380736","MEAN_MOTION_DDOT":"0.0000000000000","EPHEMERIS_TYPE":"0","MEAN_MOTION_DOT":"0.00000436"},{"MEAN_MOTION_DDOT":"0.0000000000000","EPHEMERIS_TYPE":"0","MEAN_MOTION_DOT":"0.00001018","TIME_SYSTEM":"UTC","SEMIMAJOR_AXIS":"6925.345","DECAY_DATE":null,"EPOCH":"2022-04-26T21:32:47.453280","MEAN_ELEMENT_THEORY":"SGP4","GP_ID":"202111218","NORAD_CAT_ID":"47367","TLE_LINE1":"1 47367U 21005U   22116.89777145  .00001018  00000-0  87238-4 0  9997","PERIOD":"95.592","ARG_OF_PERICENTER":"36.4169","TLE_LINE2":"2 47367  53.0533 283.8980 0001529  36.4169 323.6924 15.06401009 70105","MEAN_MOTION":"15.06401009","REV_AT_EPOCH":"7010","OBJECT_TYPE":"PAYLOAD","OBJECT_NAME":"STARLINK-2082","ELEMENT_SET_NO":"999","RA_OF_ASC_NODE":"283.8980","PERIAPSIS":"546.152","COUNTRY_CODE":"US","CLASSIFICATION_TYPE":"U","RCS_SIZE":"LARGE","REF_FRAME":"TEME","SITE":"AFETR","CENTER_NAME":"EARTH","BSTAR":"0.00008723800000","INCLINATION":"53.0533","FILE":"3417474","APOAPSIS":"548.269","LAUNCH_DATE":"2021-01-20","ECCENTRICITY":"0.00015290","MEAN_ANOMALY":"323.6924","OBJECT_ID":"2021-005U"},{"ARG_OF_PERICENTER":"73.7388","PERIOD":"95.592","NORAD_CAT_ID":"47368","TLE_LINE1":"1 47368U 21005V   22116.75771054 -.00000075  00000-0  13869-4 0  9998","MEAN_ELEMENT_THEORY":"SGP4","GP_ID":"202109965","OBJECT_NAME":"STARLINK-2084","OBJECT_TYPE":"PAYLOAD","REV_AT_EPOCH":"7008","MEAN_MOTION":"15.06395512","TLE_LINE2":"2 47368  53.0549 284.5089 0001537  73.7388 286.3770 15.06395512 70089","MEAN_MOTION_DOT":"-0.00000075","MEAN_MOTION_DDOT":"0.0000000000000","EPHEMERIS_TYPE":"0","EPOCH":"2022-04-26T18:11:06.190656","DECAY_DATE":null,"SEMIMAJOR_AXIS":"6925.362","TIME_SYSTEM":"UTC","CENTER_NAME":"EARTH","SITE":"AFETR","OBJECT_ID":"2021-005V","ECCENTRICITY":"0.00015370","MEAN_ANOMALY":"286.3770","LAUNCH_DATE":"2021-01-20","APOAPSIS":"548.292","FILE":"3417474","BSTAR":"0.00001386900000","INCLINATION":"53.0549","RA_OF_ASC_NODE":"284.5089","ELEMENT_SET_NO":"999","REF_FRAME":"TEME","CLASSIFICATION_TYPE":"U","RCS_SIZE":"LARGE","PERIAPSIS":"546.163","COUNTRY_CODE":"US"},{"FILE":"3417474","APOAPSIS":"548.242","BSTAR":"0.00012626000000","INCLINATION":"53.0526","OBJECT_ID":"2021-005W","MEAN_ANOMALY":"300.5884","ECCENTRICITY":"0.00014840","LAUNCH_DATE":"2021-01-20","SITE":"AFETR","CENTER_NAME":"EARTH","RCS_SIZE":"LARGE","CLASSIFICATION_TYPE":"U","PERIAPSIS":"546.186","COUNTRY_CODE":"US","REF_FRAME":"TEME","RA_OF_ASC_NODE":"264.5010","ELEMENT_SET_NO":"999","REV_AT_EPOCH":"7036","MEAN_MOTION":"15.06399810","TLE_LINE2":"2 47369  53.0526 264.5010 0001484  59.5251 300.5884 15.06399810 70360","OBJECT_NAME":"STARLINK-2085","OBJECT_TYPE":"PAYLOAD","MEAN_ELEMENT_THEORY":"SGP4","GP_ID":"202110212","ARG_OF_PERICENTER":"59.5251","PERIOD":"95.592","TLE_LINE1":"1 47369U 21005W   22116.76324131  .00001600  00000-0  12626-3 0  9993","NORAD_CAT_ID":"47369","DECAY_DATE":null,"SEMIMAJOR_AXIS":"6925.349","TIME_SYSTEM":"UTC","EPOCH":"2022-04-26T18:19:04.049184","MEAN_MOTION_DDOT":"0.0000000000000","EPHEMERIS_TYPE":"0","MEAN_MOTION_DOT":"0.00001600"},{"MEAN_MOTION_DOT":"0.00000547","MEAN_MOTION_DDOT":"0.0000000000000","EPHEMERIS_TYPE":"0","EPOCH":"2022-04-26T17:18:01.832256","TIME_SYSTEM":"UTC","SEMIMAJOR_AXIS":"6925.373","DECAY_DATE":null,"TLE_LINE1":"1 47370U 21005X   22116.72085454  .00000547  00000-0  55649-4 0  9995","NORAD_CAT_ID":"47370","PERIOD":"95.593","ARG_OF_PERICENTER":"32.7226","MEAN_ELEMENT_THEORY":"SGP4","GP_ID":"202110466","OBJECT_TYPE":"PAYLOAD","OBJECT_NAME":"STARLINK-2086","TLE_LINE2":"2 47370  53.0538 244.6879 0002436  32.7226 327.3913 15.06392184 70648","MEAN_MOTION":"15.06392184","REV_AT_EPOCH":"7064","ELEMENT_SET_NO":"999","RA_OF_ASC_NODE":"244.6879","REF_FRAME":"TEME","COUNTRY_CODE":"US","PERIAPSIS":"545.550","RCS_SIZE":"LARGE","CLASSIFICATION_TYPE":"U","CENTER_NAME":"EARTH","SITE":"AFETR","LAUNCH_DATE":"2021-01-20","MEAN_ANOMALY":"327.3913","ECCENTRICITY":"0.00024360","OBJECT_ID":"2021-005X","BSTAR":"0.00005564900000","INCLINATION":"53.0538","APOAPSIS":"548.925","FILE":"3417474"},{"GP_ID":"202110718","MEAN_ELEMENT_THEORY":"SGP4","PERIOD":"95.592","ARG_OF_PERICENTER":"66.4334","TLE_LINE1":"1 47371U 21005Y   22116.83881044  .00018676  00000-0  12693-2 0  9999","NORAD_CAT_ID":"47371","TLE_LINE2":"2 47371  53.0536 284.1549 0001668  66.4334 293.6830 15.06401272 70091","REV_AT_EPOCH":"7009","MEAN_MOTION":"15.06401272","OBJECT_TYPE":"PAYLOAD","OBJECT_NAME":"STARLINK-2088","EPHEMERIS_TYPE":"0","MEAN_MOTION_DDOT":"0.0000000000000","MEAN_MOTION_DOT":"0.00018676","TIME_SYSTEM":"UTC","DECAY_DATE":null,"SEMIMAJOR_AXIS":"6925.345","EPOCH":"2022-04-26T20:07:53.222016","SITE":"AFETR","CENTER_NAME":"EARTH","BSTAR":"0.00126930000000","INCLINATION":"53.0536","FILE":"3417474","APOAPSIS":"548.365","MEAN_ANOMALY":"293.6830","ECCENTRICITY":"0.00016680","LAUNCH_DATE":"2021-01-20","OBJECT_ID":"2021-005Y","ELEMENT_SET_NO":"999","RA_OF_ASC_NODE":"284.1549","RCS_SIZE":"LARGE","CLASSIFICATION_TYPE":"U","PERIAPSIS":"546.055","COUNTRY_CODE":"US","REF_FRAME":"TEME"},{"CLASSIFICATION_TYPE":"U","RCS_SIZE":"LARGE","COUNTRY_CODE":"US","PERIAPSIS":"546.265","REF_FRAME":"TEME","RA_OF_ASC_NODE":"279.6021","ELEMENT_SET_NO":"999","APOAPSIS":"548.177","FILE":"3417474","BSTAR":"-0.00004748500000","INCLINATION":"53.0555","OBJECT_ID":"2021-005Z","MEAN_ANOMALY":"281.5083","ECCENTRICITY":"0.00013810","LAUNCH_DATE":"2021-01-20","SITE":"AFETR","CENTER_NAME":"EARTH","DECAY_DATE":null,"SEMIMAJOR_AXIS":"6925.356","TIME_SYSTEM":"UTC","EPOCH":"2022-04-26T17:41:13.052832","MEAN_MOTION_DDOT":"0.0000000000000","EPHEMERIS_TYPE":"0","MEAN_MOTION_DOT":"-0.00000989","REV_AT_EPOCH":"7014","MEAN_MOTION":"15.06397537","TLE_LINE2":"2 47372  53.0555 279.6021 0001381  78.6061 281.5083 15.06397537 70141","OBJECT_NAME":"STARLINK-2089","OBJECT_TYPE":"PAYLOAD","GP_ID":"202109465","MEAN_ELEMENT_THEORY":"SGP4","PERIOD":"95.592","ARG_OF_PERICENTER":"78.6061","NORAD_CAT_ID":"47372","TLE_LINE1":"1 47372U 21005Z   22116.73695663 -.00000989  00000-0 -47485-4 0  9998"},{"MEAN_MOTION_DOT":"-0.00000551","MEAN_MOTION_DDOT":"0.0000000000000","EPHEMERIS_TYPE":"0","EPOCH":"2022-04-26T20:02:34.144224","TIME_SYSTEM":"UTC","SEMIMAJOR_AXIS":"6925.364","DECAY_DATE":null,"TLE_LINE1":"1 47373U 21005AA  22116.83511741 -.00000551  00000-0 -18119-4 0  9991","NORAD_CAT_ID":"47373","PERIOD":"95.592","ARG_OF_PERICENTER":"60.3998","MEAN_ELEMENT_THEORY":"SGP4","GP_ID":"202109712","OBJECT_TYPE":"PAYLOAD","OBJECT_NAME":"STARLINK-2092","TLE_LINE2":"2 47373  53.0541 284.1581 0001676  60.3998 299.7157 15.06394864 70090","MEAN_MOTION":"15.06394864","REV_AT_EPOCH":"7009","ELEMENT_SET_NO":"999","RA_OF_ASC_NODE":"284.1581","REF_FRAME":"TEME","PERIAPSIS":"546.069","COUNTRY_CODE":"US","RCS_SIZE":"LARGE","CLASSIFICATION_TYPE":"U","CENTER_NAME":"EARTH","SITE":"AFETR","LAUNCH_DATE":"2021-01-20","ECCENTRICITY":"0.00016760","MEAN_ANOMALY":"299.7157","OBJECT_ID":"2021-005AA","INCLINATION":"53.0541","BSTAR":"-0.00001811900000","FILE":"3417474","APOAPSIS":"548.390"},{"APOAPSIS":"547.951","FILE":"3417474","BSTAR":"-0.00008069100000","INCLINATION":"53.0481","OBJECT_ID":"2021-005AB","LAUNCH_DATE":"2021-01-20","ECCENTRICITY":"0.00010980","MEAN_ANOMALY":"320.7659","SITE":"AFETR","CENTER_NAME":"EARTH","PERIAPSIS":"546.430","COUNTRY_CODE":"US","RCS_SIZE":"LARGE","CLASSIFICATION_TYPE":"U","REF_FRAME":"TEME","RA_OF_ASC_NODE":"284.6714","ELEMENT_SET_NO":"999","MEAN_MOTION":"15.06407420","REV_AT_EPOCH":"7007","TLE_LINE2":"2 47374  53.0481 284.6714 0001098  39.3410 320.7659 15.06407420 70073","OBJECT_NAME":"STARLINK-2093","OBJECT_TYPE":"PAYLOAD","MEAN_ELEMENT_THEORY":"SGP4","GP_ID":"202110967","NORAD_CAT_ID":"47374","TLE_LINE1":"1 47374U 21005AB  22116.72358563 -.00001483  00000-0 -80691-4 0  9990","PERIOD":"95.592","ARG_OF_PERICENTER":"39.3410","SEMIMAJOR_AXIS":"6925.326","DECAY_DATE":null,"TIME_SYSTEM":"UTC","EPOCH":"2022-04-26T17:21:57.798432","MEAN_MOTION_DDOT":"0.0000000000000","EPHEMERIS_TYPE":"0","MEAN_MOTION_DOT":"-0.00001483"}];
